[{"OBJECT_NAME":"STARLINK-5893","OBJECT_ID":"2023-037AQ","EPOCH":"2026-03-09T21:53:15.441792","MEAN_MOTION":14.98316612,"ECCENTRICITY":0.00025518,"INCLINATION":69.9981,"RA_OF_ASC_NODE":264.0104,"ARG_OF_PERICENTER":278.3989,"MEAN_ANOMALY":81.688,"EPHEMERIS_TYPE":0,"CLASSIFICATION_TYPE":"U","NORAD_CAT_ID":55952,"ELEMENT_SET_NO":999,"REV_AT_EPOCH":16450,"BSTAR":4.7600036e-5,"MEAN_MOTION_DOT":4.75e-6,"MEAN_MOTION_DDOT":0},{"OBJECT_NAME":"CZ-6A DEB","OBJECT_ID":"2022-151RK","EPOCH":"2026-03-09T04:16:52.342176","MEAN_MOTION":15.00981633,"ECCENTRICITY":0.00383954,"INCLINATION":98.6273,"RA_OF_ASC_NODE":143.4522,"ARG_OF_PERICENTER":188.2396,"MEAN_ANOMALY":171.8199,"EPHEMERIS_TYPE":0,"CLASSIFICATION_TYPE":"U","NORAD_CAT_ID":54922,"ELEMENT_SET_NO":999,"REV_AT_EPOCH":17321,"BSTAR":0.0056092635,"MEAN_MOTION_DOT":0.00073321,"MEAN_MOTION_DDOT":0}]
